{
  "norad_id": 62271,
  "name": "STARLINK-11489 [DTC]",
  "history": [
    {
      "epoch": "2026-03-28T21:02:53.365920",
      "apogee_km": 357.3288047251972,
      "perigee_km": 355.5733669947367,
      "latitude_deg": -33.324844943538515,
      "longitude_deg": 131.29262880026363,
      "semi_major_axis_km": 6734.588085859967,
      "eccentricity": 0.00013033,
      "inclination_deg": 43.0021,
      "raan_deg": 301.5197,
      "arg_perigee_deg": 167.3559,
      "mean_anomaly_deg": 192.7341,
      "mean_motion_rev_day": 15.70855386
    }
  ]
}